STARLINK-4565           
1 53562U 22101AM  24354.02989607 -.00001324  00000+0 -65141-4 0  9998
2 53562  53.2178 254.9117 0001473  94.7459 265.3701 15.08830747129820
STARLINK-4561           
1 53563U 22101AN  24354.10350665 -.00001394  00000+0 -69526-4 0  9992
2 53563  53.2182 254.6591 0001648  94.4126 265.7054 15.08827873129170
STARLINK-4577           
1 53564U 22101AP  24354.41996145  .00002429  00000+0  17065-3 0  9994
2 53564  53.2167 253.0823 0001496  89.7883 270.3280 15.08837172129225
STARLINK-4575           
1 53565U 22101AQ  24354.03085607 -.00000070  00000+0  13684-4 0  9990
2 53565  53.2177 254.9188 0001595 104.7129 255.4040 15.08827793129824
STARLINK-4576           
1 53566U 22101AR  24354.01515332 -.00000130  00000+0  99457-5 0  9992
2 53566  53.2182 254.8196 0001307  88.9663 271.1479 15.08825096129854
STARLINK-4585           
1 53567U 22101AS  24354.02620571  .00000156  00000+0  27918-4 0  9995
2 53567  53.2156 254.8844 0001306  89.1213 270.9928 15.08832548129169
STARLINK-4583           
1 53568U 22101AT  24354.00409434 -.00002154  00000+0 -11729-3 0  9991
2 53568  53.2185 254.7461 0001823 111.7553 248.3634 15.08831250129857
STARLINK-4582           
1 53569U 22101AU  24354.01883966  .00000634  00000+0  57955-4 0  9990
2 53569  53.2175 254.8407 0001307  93.6880 266.4262 15.08830478129833
STARLINK-4550           
1 53570U 22101AV  24354.14026413 -.00000159  00000+0  81264-5 0  9996
2 53570  53.2178 254.1777 0001580  99.9838 260.1332 15.08833084129875
STARLINK-4584           
1 53571U 22101AW  24354.01147855  .00001184  00000+0  92461-4 0  9995
2 53571  53.2177 254.7948 0001549  92.4036 267.7133 15.08832612129850
STARLINK-4555           
1 53572U 22101AX  24354.05191412 -.00002337  00000+0 -12883-3 0  9990
2 53572  53.2174 254.3419 0001550  88.1505 271.9664 15.08828695129179
STARLINK-4547           
1 53573U 22101AY  24354.46405651  .00004488  00000+0  29960-3 0  9990
2 53573  53.2174 252.6440 0000447 113.8715 246.2324 15.08869536129232
STARLINK-4559           
1 53574U 22101AZ  24353.98935864 -.00001597  00000+0 -82304-4 0  9993
2 53574  53.2172 254.6611 0001368  80.9583 279.1564 15.08827906129161
STARLINK-4551           
1 53575U 22101BA  24354.12920716 -.00000342  00000+0 -34102-5 0  9992
2 53575  53.2189 254.1081 0001633 107.6168 252.5003 15.08835409129875
STARLINK-4581           
1 53576U 22101BB  24354.13016813 -.00001648  00000+0 -85517-4 0  9993
2 53576  53.2187 254.1119 0001440  97.0073 263.1083 15.08832462130008
STARLINK-4553           
1 53577U 22101BC  24353.99303992 -.00001064  00000+0 -48798-4 0  9996
2 53577  53.2169 254.6819 0001179  94.6399 265.4728 15.08830559129985
STARLINK-4556           
1 53578U 22101BD  24354.11446858  .00002116  00000+0  15105-3 0  9993
2 53578  53.2152 254.0186 0001619  88.4318 271.6859 15.08834726129186
STARLINK-4580           
1 53579U 22101BE  24354.11077810  .00001298  00000+0  99615-4 0  9991
2 53579  53.2175 253.9938 0001259  92.7445 267.3691 15.08841908129180
STARLINK-4691           
1 53588U 22104A   24353.77690249  .00000398  00000+0  43136-4 0  9999
2 53588  53.2183  86.1446 0001815  83.7103 276.4096 15.08833886128778
STARLINK-4673           
1 53589U 22104B   24354.48711852 -.00000233  00000+0  34441-5 0  9992
2 53589  53.2179  82.7637 0001276  85.6437 274.4701 15.08833404127710
STARLINK-4689           
1 53590U 22104C   24354.43561636  .00001239  00000+0  95929-4 0  9995
2 53590  53.2188  83.1512 0001292  88.3785 271.7356 15.08837548127701
STARLINK-4674           
1 53591U 22104D   24353.96825288 -.00001198  00000+0 -57189-4 0  9991
2 53591  53.2197  85.2063 0001560  78.7747 281.3421 15.08827569128674
STARLINK-4672           
1 53592U 22104E   24353.96552615  .00000292  00000+0  36429-4 0  9999
2 53592  53.2179  85.1928 0001285  97.4605 262.6533 15.08833863128657
STARLINK-4671           
1 53593U 22104F   24354.58334491  .00118800  00000+0  40987-2 0  9996
2 53593  53.1986  72.5559 0000900 201.6201 271.7692 15.29078307127863
STARLINK-4681           
1 53594U 22104G   24354.47975136 -.00000660  00000+0 -23375-4 0  9992
2 53594  53.2204  82.7151 0001809  88.2831 271.8368 15.08825665127715
STARLINK-4684           
1 53595U 22104H   24354.28471207  .00004266  00000+0  28621-3 0  9994
2 53595  53.2170  83.6309 0001506  99.8537 260.2625 15.08808811128700
STARLINK-4668           
1 53596U 22104J   24354.20874916  .00063594  00000+0  17235-2 0  9998
2 53596  53.2100  57.9811 0003643 352.5716   7.5234 15.37072288128732
STARLINK-4676           
1 53598U 22104L   24354.25892172 -.00001778  00000+0 -93654-4 0  9998
2 53598  53.2177  83.4748 0001299  92.4709 267.6432 15.08828015128372
STARLINK-4677           
1 53600U 22104N   24354.25627181 -.00000643  00000+0 -22322-4 0  9992
2 53600  53.2190  84.1507 0001285  76.2632 283.8503 15.08836930128084
STARLINK-4675           
1 53601U 22104P   24353.74004997 -.00001064  00000+0 -48751-4 0  9992
2 53601  53.2154  85.9188 0001755  97.8686 262.2505 15.08839140128291
STARLINK-4648           
1 53602U 22104Q   24353.94474811  .00002253  00000+0  15957-3 0  9991
2 53602  53.2187  80.0849 0001261  85.5460 274.5676 15.08849650128397
STARLINK-4692           
1 53603U 22104R   24354.49679143 -.00000651  00000+0 -22824-4 0  9992
2 53603  53.2175  77.8397 0001296  86.9260 273.1880 15.08831279127780
STARLINK-4690           
1 53604U 22104S   24354.20235590 -.00000105  00000+0  11463-4 0  9996
2 53604  53.2192  78.8474 0001291  92.5940 267.5200 15.08833489128431
STARLINK-4693           
1 53605U 22104T   24354.26259841  .00000925  00000+0  76206-4 0  9993
2 53605  53.2171  83.4965 0001372  93.5199 266.5950 15.08841039127680
STARLINK-4590           
1 53606U 22104U   24354.22676485 -.00001805  00000+0 -95327-4 0  9992
2 53606  53.2189  73.9928 0001122  69.2252 290.8861 15.08840756127817
STARLINK-4591           
1 53607U 22104V   24354.48573290 -.00009519  00000+0 -58038-3 0  9998
2 53607  53.2176  77.7688 0001434  87.4726 272.6431 15.08864587127788
STARLINK-4647           
1 53608U 22104W   24354.49908937  .00001845  00000+0  13400-3 0  9996
2 53608  53.2165  72.8476 0001301  81.4023 278.7117 15.08840269127852
STARLINK-4660           
1 53609U 22104X   24354.45257461  .00000732  00000+0  64073-4 0  9999
2 53609  53.2173  77.5638 0001465 111.7398 248.3751 15.08828522127784
STARLINK-4610           
1 53610U 22104Y   24354.49269123 -.00004723  00000+0 -27877-3 0  9999
2 53610  53.2198  72.8100 0000771  73.8460 286.2617 15.08849690127851
STARLINK-4650           
1 53611U 22104Z   24354.16376220  .00046060  00000+0  14515-2 0  9993
2 53611  53.1967  55.3842 0002555 180.7815 179.3183 15.32471072128761
STARLINK-4658           
1 53612U 22104AA  24354.42181876  .00037949  00000+0  23883-2 0  9998
2 53612  53.2163  73.0779 0001537  69.1857 290.9300 15.08861650127849
STARLINK-4655           
1 53613U 22104AB  24353.96548280  .00001016  00000+0  81937-4 0  9995
2 53613  53.2174  75.2044 0001641  85.2852 274.8328 15.08840135128343
STARLINK-4605           
1 53616U 22104AE  24354.41901506 -.00000093  00000+0  12271-4 0  9993
2 53616  53.2186  62.8907 0001570  94.2535 265.8637 15.08834829127983
STARLINK-4601           
1 53617U 22104AF  24354.25001157  .00670740  00000+0  19964-2 0  9994
2 53617  53.2086  60.4916 0001334  80.5438 339.9767 15.90317544  5731
STARLINK-4604           
1 53618U 22104AG  24354.20833828  .00000220  00000+0  31912-4 0  9997
2 53618  53.2188  73.8822 0000696 111.4282 248.6785 15.08828409127805
STARLINK-4609           
1 53619U 22104AH  24354.21571422  .00000295  00000+0  36625-4 0  9996
2 53619  53.2165  73.9234 0001842  88.9984 271.1219 15.08831901128388
STARLINK-4615           
1 53620U 22104AJ  24353.93601057 -.00000517  00000+0 -14365-4 0  9990
2 53620  53.2199  75.0253 0001637  94.0869 266.0310 15.08830989128451
STARLINK-4608           
1 53621U 22104AK  24354.21201666  .00000200  00000+0  30680-4 0  9990
2 53621  53.2179  73.8999 0001744  90.8141 269.3051 15.08842266128380
STARLINK-4568           
1 53622U 22104AL  24354.24509973  .00000041  00000+0  20685-4 0  9993
2 53622  53.2169  73.4046 0001711 100.4551 259.6634 15.08836361128508
STARLINK-4573           
1 53623U 22104AM  24353.93970094 -.00000913  00000+0 -39310-4 0  9990
2 53623  53.2184  75.0452 0001268  79.1765 280.9370 15.08836831128451
STARLINK-4596           
1 53624U 22104AN  24354.25983381 -.00001519  00000+0 -77370-4 0  9991
2 53624  53.2160  73.4891 0001949  87.2698 272.8517 15.08835259128508
STARLINK-4603           
1 53625U 22104AP  24354.20505845  .01420912  11434-2  25792-2 0  9998
2 53625  53.2130  60.3315 0000902 116.1781 243.9344 16.01141561128681
STARLINK-4554           
1 53626U 22104AQ  24354.44750616  .00000274  00000+0  35331-4 0  9993
2 53626  53.2170  72.5325 0001401  86.0586 274.0566 15.08839360127851
STARLINK-4595           
1 53627U 22104AR  24354.25615707 -.00000189  00000+0  62427-5 0  9997
2 53627  53.2192  73.4702 0001724 100.5479 259.5708 15.08832129128512
STARLINK-4600           
1 53628U 22104AS  24354.44014325 -.00002117  00000+0 -11497-3 0  9991
2 53628  53.2179  72.4891 0001714  91.8626 268.2562 15.08832335127851
STARLINK-4602           
1 53629U 22104AT  24354.45118857  .00000983  00000+0  79866-4 0  9990
2 53629  53.2193  72.5508 0001581  95.3983 264.7189 15.08828253127851
STARLINK-4598           
1 53630U 22104AU  24354.41999356  .00001116  00000+0  88242-4 0  9996
2 53630  53.2191  63.0849 0001753  86.2504 273.8689 15.08824578127989
STARLINK-4599           
1 53631U 22104AV  24354.43644471  .00001342  00000+0  10236-3 0  9992
2 53631  53.2178  72.4625 0001647  86.2256 273.8925 15.08850122127850
STARLINK-4606           
1 53632U 22104AW  24354.21294489  .00002731  00000+0  18964-3 0  9998
2 53632  53.2160  63.9231 0001877 100.9828 259.1376 15.08839836128974
